MALLIGYONG-1            
1 58400U 23179A   24295.52157400  .00009717  00000+0  43494-3 0  9995
2 58400  97.3820 180.1376 0008391   6.1124 354.0213 15.21450307 50932
